[{"OBJECT_NAME":"STARLINK-31107","OBJECT_ID":"2023-211T","EPOCH":"2026-03-09T01:25:21.238176","MEAN_MOTION":15.27585804,"ECCENTRICITY":0.0001392,"INCLINATION":42.9994,"RA_OF_ASC_NODE":89.2231,"ARG_OF_PERICENTER":277.9362,"MEAN_ANOMALY":82.1331,"EPHEMERIS_TYPE":0,"CLASSIFICATION_TYPE":"U","NORAD_CAT_ID":58684,"ELEMENT_SET_NO":999,"REV_AT_EPOCH":12236,"BSTAR":-3.73663e-7,"MEAN_MOTION_DOT":-2.72e-6,"MEAN_MOTION_DDOT":0},{"OBJECT_NAME":"BANDWAGON-2 OBJECT D","OBJECT_ID":"2024-247D","EPOCH":"2026-03-09T12:32:33.670752","MEAN_MOTION":15.29076102,"ECCENTRICITY":0.00034883,"INCLINATION":44.9954,"RA_OF_ASC_NODE":115.671,"ARG_OF_PERICENTER":351.1453,"MEAN_ANOMALY":8.9368,"EPHEMERIS_TYPE":0,"CLASSIFICATION_TYPE":"U","NORAD_CAT_ID":62380,"ELEMENT_SET_NO":999,"REV_AT_EPOCH":6773,"BSTAR":0.00040119131,"MEAN_MOTION_DOT":0.00011259,"MEAN_MOTION_DDOT":0}]
